[{"OBJECT_NAME":"STARLINK-30250","OBJECT_ID":"2023-115G","EPOCH":"2026-03-09T04:37:04.931616","MEAN_MOTION":15.26761278,"ECCENTRICITY":4.786e-5,"INCLINATION":42.9981,"RA_OF_ASC_NODE":4.5339,"ARG_OF_PERICENTER":287.7071,"MEAN_ANOMALY":72.3728,"EPHEMERIS_TYPE":0,"CLASSIFICATION_TYPE":"U","NORAD_CAT_ID":57527,"ELEMENT_SET_NO":999,"REV_AT_EPOCH":14317,"BSTAR":-0.00023974414,"MEAN_MOTION_DOT":-6.688e-5,"MEAN_MOTION_DDOT":0},{"OBJECT_NAME":"CZ-6A DEB","OBJECT_ID":"2023-168D","EPOCH":"2026-03-09T19:03:52.964928","MEAN_MOTION":15.28240044,"ECCENTRICITY":0.00013417,"INCLINATION":97.7802,"RA_OF_ASC_NODE":98.3362,"ARG_OF_PERICENTER":174.0661,"MEAN_ANOMALY":186.0594,"EPHEMERIS_TYPE":0,"CLASSIFICATION_TYPE":"U","NORAD_CAT_ID":58202,"ELEMENT_SET_NO":999,"REV_AT_EPOCH":12922,"BSTAR":0.0014474773,"MEAN_MOTION_DOT":0.00039923,"MEAN_MOTION_DDOT":0}]
